ONEWEB-0372             
1 49298U 21090V   26123.16180760  .00000069  00000+0  13854-3 0  9995
2 49298  87.9150 283.4240 0001793  95.2184 264.9154 13.20773565223890
ONEWEB-0373             
1 49299U 21090W   26123.18878095  .00000059  00000+0  11397-3 0  9992
2 49299  87.9147 283.4212 0001771  99.1442 260.9891 13.20770602225088
ONEWEB-0374             
1 49300U 21090X   26123.20922524 -.00000164  00000+0 -47698-3 0  9997
2 49300  87.8926 298.6719 0002203 106.1396 253.9977 13.14504230221654
ONEWEB-0375             
1 49301U 21090Y   26122.94888161  .00007507  00000+0  18426-1 0  9997
2 49301  87.9146 283.4593 0002336 115.4948 244.6428 13.20731677224559
ONEWEB-0376             
1 49302U 21090Z   26123.22893090  .00000044  00000+0  78753-4 0  9998
2 49302  87.9153 313.9289 0001855  83.0159 277.1184 13.19726415220523
ONEWEB-0377             
1 49303U 21090AA  26123.16209166  .00000009  00000+0 -89813-5 0  9999
2 49303  87.9148 283.4183 0001632 101.5788 258.5529 13.20771304224573
ONEWEB-0378             
1 49304U 21090AB  26123.18417436  .00000016  00000+0  77463-5 0  9998
2 49304  87.9154 283.4196 0001682 114.5230 245.6079 13.20769295223848
ONEWEB-0379             
1 49305U 21090AC  26123.20447641 -.00000184  00000+0 -52993-3 0  9990
2 49305  87.8927 298.6836 0001858  94.8930 265.2412 13.14503394221652
ONEWEB-0380             
1 49306U 21090AD  26123.22576937  .00000053  00000+0  10104-3 0  9995
2 49306  87.9148 313.9389 0001737  97.2055 262.9275 13.19725317220492
ONEWEB-0381             
1 49307U 21090AE  26123.15877154  .00000061  00000+0  11731-3 0  9999
2 49307  87.9149 283.4234 0001956 102.4249 257.7103 13.20769481223881
ONEWEB-0382             
1 49308U 21090AF  26123.14614633 -.00000158  00000+0 -41952-3 0  9997
2 49308  87.9147 283.4215 0002070 101.4334 258.7032 13.20771127223872
ONEWEB-0383             
1 49309U 21090AG  26123.19814083 -.00000123  00000+0 -36719-3 0  9991
2 49309  87.8936 298.6735 0001929  93.5598 266.5753 13.14502692221684
ONEWEB-0384             
1 49310U 21090AH  26122.90868637 -.00000042  00000+0 -13600-3 0  9999
2 49310  87.9151 283.5122 0002309 101.6349 258.5044 13.20810379223853
ONEWEB-0385             
1 49311U 21090AJ  26123.13827270 -.00000008  00000+0 -52437-4 0  9998
2 49311  87.9150 283.4277 0001973 100.1060 260.0296 13.20770393223851
ONEWEB-0386             
1 49312U 21090AK  26123.15563057  .00000040  00000+0  66309-4 0  9998
2 49312  87.9158 283.4128 0002057  98.4736 261.6631 13.20770413223873
ONEWEB-0387             
1 49313U 21090AL  26122.91258000  .00000014  00000+0  22932-5 0  9997
2 49313  87.9138 283.4898 0001752 106.8285 253.3041 13.20771013223847
