[{"OBJECT_NAME":"ONEWEB-0372","OBJECT_ID":"2021-090V","EPOCH":"2026-05-03T03:53:00.176640","MEAN_MOTION":13.20773565,"ECCENTRICITY":0.0001793,"INCLINATION":87.915,"RA_OF_ASC_NODE":283.424,"ARG_OF_PERICENTER":95.2184,"MEAN_ANOMALY":264.9154,"EPHEMERIS_TYPE":0,"CLASSIFICATION_TYPE":"U","NORAD_CAT_ID":49298,"ELEMENT_SET_NO":999,"REV_AT_EPOCH":22389,"BSTAR":0.00013854,"MEAN_MOTION_DOT":6.9e-07,"MEAN_MOTION_DDOT":0.0},{"OBJECT_NAME":"ONEWEB-0373","OBJECT_ID":"2021-090W","EPOCH":"2026-05-03T04:31:50.674080","MEAN_MOTION":13.20770602,"ECCENTRICITY":0.0001771,"INCLINATION":87.9147,"RA_OF_ASC_NODE":283.4212,"ARG_OF_PERICENTER":99.1442,"MEAN_ANOMALY":260.9891,"EPHEMERIS_TYPE":0,"CLASSIFICATION_TYPE":"U","NORAD_CAT_ID":49299,"ELEMENT_SET_NO":999,"REV_AT_EPOCH":22508,"BSTAR":0.00011397000000000001,"MEAN_MOTION_DOT":5.9e-07,"MEAN_MOTION_DDOT":0.0},{"OBJECT_NAME":"ONEWEB-0374","OBJECT_ID":"2021-090X","EPOCH":"2026-05-03T05:01:17.060736","MEAN_MOTION":13.1450423,"ECCENTRICITY":0.0002203,"INCLINATION":87.8926,"RA_OF_ASC_NODE":298.6719,"ARG_OF_PERICENTER":106.1396,"MEAN_ANOMALY":253.9977,"EPHEMERIS_TYPE":0,"CLASSIFICATION_TYPE":"U","NORAD_CAT_ID":49300,"ELEMENT_SET_NO":999,"REV_AT_EPOCH":22165,"BSTAR":-0.00047698,"MEAN_MOTION_DOT":-1.64e-06,"MEAN_MOTION_DDOT":0.0},{"OBJECT_NAME":"ONEWEB-0375","OBJECT_ID":"2021-090Y","EPOCH":"2026-05-02T22:46:23.371104","MEAN_MOTION":13.20731677,"ECCENTRICITY":0.0002336,"INCLINATION":87.9146,"RA_OF_ASC_NODE":283.4593,"ARG_OF_PERICENTER":115.4948,"MEAN_ANOMALY":244.6428,"EPHEMERIS_TYPE":0,"CLASSIFICATION_TYPE":"U","NORAD_CAT_ID":49301,"ELEMENT_SET_NO":999,"REV_AT_EPOCH":22455,"BSTAR":0.018426,"MEAN_MOTION_DOT":7.507e-05,"MEAN_MOTION_DDOT":0.0},{"OBJECT_NAME":"ONEWEB-0376","OBJECT_ID":"2021-090Z","EPOCH":"2026-05-03T05:29:39.629760","MEAN_MOTION":13.19726415,"ECCENTRICITY":0.0001855,"INCLINATION":87.9153,"RA_OF_ASC_NODE":313.9289,"ARG_OF_PERICENTER":83.0159,"MEAN_ANOMALY":277.1184,"EPHEMERIS_TYPE":0,"CLASSIFICATION_TYPE":"U","NORAD_CAT_ID":49302,"ELEMENT_SET_NO":999,"REV_AT_EPOCH":22052,"BSTAR":7.8753e-05,"MEAN_MOTION_DOT":4.4e-07,"MEAN_MOTION_DDOT":0.0},{"OBJECT_NAME":"ONEWEB-0377","OBJECT_ID":"2021-090AA","EPOCH":"2026-05-03T03:53:24.719424","MEAN_MOTION":13.20771304,"ECCENTRICITY":0.0001632,"INCLINATION":87.9148,"RA_OF_ASC_NODE":283.4183,"ARG_OF_PERICENTER":101.5788,"MEAN_ANOMALY":258.5529,"EPHEMERIS_TYPE":0,"CLASSIFICATION_TYPE":"U","NORAD_CAT_ID":49303,"ELEMENT_SET_NO":999,"REV_AT_EPOCH":22457,"BSTAR":-8.9813e-06,"MEAN_MOTION_DOT":9e-08,"MEAN_MOTION_DDOT":0.0},{"OBJECT_NAME":"ONEWEB-0378","OBJECT_ID":"2021-090AB","EPOCH":"2026-05-03T04:25:12.664704","MEAN_MOTION":13.20769295,"ECCENTRICITY":0.0001682,"INCLINATION":87.9154,"RA_OF_ASC_NODE":283.4196,"ARG_OF_PERICENTER":114.523,"MEAN_ANOMALY":245.6079,"EPHEMERIS_TYPE":0,"CLASSIFICATION_TYPE":"U","NORAD_CAT_ID":49304,"ELEMENT_SET_NO":999,"REV_AT_EPOCH":22384,"BSTAR":7.7463e-06,"MEAN_MOTION_DOT":1.6e-07,"MEAN_MOTION_DDOT":0.0},{"OBJECT_NAME":"ONEWEB-0379","OBJECT_ID":"2021-090AC","EPOCH":"2026-05-03T04:54:26.761824","MEAN_MOTION":13.14503394,"ECCENTRICITY":0.0001858,"INCLINATION":87.8927,"RA_OF_ASC_NODE":298.6836,"ARG_OF_PERICENTER":94.893,"MEAN_ANOMALY":265.2412,"EPHEMERIS_TYPE":0,"CLASSIFICATION_TYPE":"U","NORAD_CAT_ID":49305,"ELEMENT_SET_NO":999,"REV_AT_EPOCH":22165,"BSTAR":-0.0005299300000000001,"MEAN_MOTION_DOT":-1.84e-06,"MEAN_MOTION_DDOT":0.0},{"OBJECT_NAME":"ONEWEB-0380","OBJECT_ID":"2021-090AD","EPOCH":"2026-05-03T05:25:06.473568","MEAN_MOTION":13.19725317,"ECCENTRICITY":0.0001737,"INCLINATION":87.9148,"RA_OF_ASC_NODE":313.9389,"ARG_OF_PERICENTER":97.2055,"MEAN_ANOMALY":262.9275,"EPHEMERIS_TYPE":0,"CLASSIFICATION_TYPE":"U","NORAD_CAT_ID":49306,"ELEMENT_SET_NO":999,"REV_AT_EPOCH":22049,"BSTAR":0.00010104000000000001,"MEAN_MOTION_DOT":5.3e-07,"MEAN_MOTION_DDOT":0.0},{"OBJECT_NAME":"ONEWEB-0381","OBJECT_ID":"2021-090AE","EPOCH":"2026-05-03T03:48:37.861056","MEAN_MOTION":13.20769481,"ECCENTRICITY":0.0001956,"INCLINATION":87.9149,"RA_OF_ASC_NODE":283.4234,"ARG_OF_PERICENTER":102.4249,"MEAN_ANOMALY":257.7103,"EPHEMERIS_TYPE":0,"CLASSIFICATION_TYPE":"U","NORAD_CAT_ID":49307,"ELEMENT_SET_NO":999,"REV_AT_EPOCH":22388,"BSTAR":0.00011731,"MEAN_MOTION_DOT":6.1e-07,"MEAN_MOTION_DDOT":0.0},{"OBJECT_NAME":"ONEWEB-0382","OBJECT_ID":"2021-090AF","EPOCH":"2026-05-03T03:30:27.042912","MEAN_MOTION":13.20771127,"ECCENTRICITY":0.000207,"INCLINATION":87.9147,"RA_OF_ASC_NODE":283.4215,"ARG_OF_PERICENTER":101.4334,"MEAN_ANOMALY":258.7032,"EPHEMERIS_TYPE":0,"CLASSIFICATION_TYPE":"U","NORAD_CAT_ID":49308,"ELEMENT_SET_NO":999,"REV_AT_EPOCH":22387,"BSTAR":-0.00041952,"MEAN_MOTION_DOT":-1.58e-06,"MEAN_MOTION_DDOT":0.0},{"OBJECT_NAME":"ONEWEB-0383","OBJECT_ID":"2021-090AG","EPOCH":"2026-05-03T04:45:19.367712","MEAN_MOTION":13.14502692,"ECCENTRICITY":0.0001929,"INCLINATION":87.8936,"RA_OF_ASC_NODE":298.6735,"ARG_OF_PERICENTER":93.5598,"MEAN_ANOMALY":266.5753,"EPHEMERIS_TYPE":0,"CLASSIFICATION_TYPE":"U","NORAD_CAT_ID":49309,"ELEMENT_SET_NO":999,"REV_AT_EPOCH":22168,"BSTAR":-0.00036719000000000004,"MEAN_MOTION_DOT":-1.23e-06,"MEAN_MOTION_DDOT":0.0},{"OBJECT_NAME":"ONEWEB-0384","OBJECT_ID":"2021-090AH","EPOCH":"2026-05-02T21:48:30.502368","MEAN_MOTION":13.20810379,"ECCENTRICITY":0.0002309,"INCLINATION":87.9151,"RA_OF_ASC_NODE":283.5122,"ARG_OF_PERICENTER":101.6349,"MEAN_ANOMALY":258.5044,"EPHEMERIS_TYPE":0,"CLASSIFICATION_TYPE":"U","NORAD_CAT_ID":49310,"ELEMENT_SET_NO":999,"REV_AT_EPOCH":22385,"BSTAR":-0.00013600000000000003,"MEAN_MOTION_DOT":-4.2e-07,"MEAN_MOTION_DDOT":0.0},{"OBJECT_NAME":"ONEWEB-0385","OBJECT_ID":"2021-090AJ","EPOCH":"2026-05-03T03:19:06.761280","MEAN_MOTION":13.20770393,"ECCENTRICITY":0.0001973,"INCLINATION":87.915,"RA_OF_ASC_NODE":283.4277,"ARG_OF_PERICENTER":100.106,"MEAN_ANOMALY":260.0296,"EPHEMERIS_TYPE":0,"CLASSIFICATION_TYPE":"U","NORAD_CAT_ID":49311,"ELEMENT_SET_NO":999,"REV_AT_EPOCH":22385,"BSTAR":-5.2437e-05,"MEAN_MOTION_DOT":-8e-08,"MEAN_MOTION_DDOT":0.0},{"OBJECT_NAME":"ONEWEB-0386","OBJECT_ID":"2021-090AK","EPOCH":"2026-05-03T03:44:06.481248","MEAN_MOTION":13.20770413,"ECCENTRICITY":0.0002057,"INCLINATION":87.9158,"RA_OF_ASC_NODE":283.4128,"ARG_OF_PERICENTER":98.4736,"MEAN_ANOMALY":261.6631,"EPHEMERIS_TYPE":0,"CLASSIFICATION_TYPE":"U","NORAD_CAT_ID":49312,"ELEMENT_SET_NO":999,"REV_AT_EPOCH":22387,"BSTAR":6.6309e-05,"MEAN_MOTION_DOT":4e-07,"MEAN_MOTION_DDOT":0.0},{"OBJECT_NAME":"ONEWEB-0387","OBJECT_ID":"2021-090AL","EPOCH":"2026-05-02T21:54:06.912000","MEAN_MOTION":13.20771013,"ECCENTRICITY":0.0001752,"INCLINATION":87.9138,"RA_OF_ASC_NODE":283.4898,"ARG_OF_PERICENTER":106.8285,"MEAN_ANOMALY":253.3041,"EPHEMERIS_TYPE":0,"CLASSIFICATION_TYPE":"U","NORAD_CAT_ID":49313,"ELEMENT_SET_NO":999,"REV_AT_EPOCH":22384,"BSTAR":2.2932000000000003e-06,"MEAN_MOTION_DOT":1.4e-07,"MEAN_MOTION_DDOT":0.0}]